LEGION 1                
1 59625U 24081A   24153.51825010  .00006877  00000+0  35645-3 0  9992
2 59625  97.5766 224.6094 0004887  78.4330 281.7451 15.16488533  4509
LEGION 2                
1 59626U 24081B   24153.51361119  .00006822  00000+0  35086-3 0  9997
2 59626  97.5765 224.6154 0003969  80.0045 280.1635 15.16769632  4507
STARLINK-31749          
1 59631U 24082A   24153.58334491  .00091313  00000+0  21660-2 0  9995
2 59631  43.0000 219.0389 0000479 284.7951 219.2995 15.40715883  5443
STARLINK-31781          
1 59632U 24082B   24153.58334491 -.00564826  00000+0 -25374-2 0  9998
2 59632  42.9925 213.9546 0001588 276.6121 104.6274 15.84515748  5686
STARLINK-31541          
1 59633U 24082C   24153.60105847  .00000938  00000+0  21799-4 0  9999
2 59633  42.9974 218.6496 0001149 280.2984  79.7747 15.50575627  5848
STARLINK-31797          
1 59634U 24082D   24153.58334491 -.02044464  00000+0 -51763-1 0  9993
2 59634  42.9995 218.7986 0001246 278.4222 324.0823 15.42558297  5643
STARLINK-31798          
1 59635U 24082E   24153.58334491 -.00024990  00000+0 -41997-3 0  9994
2 59635  42.9992 218.7445 0002202 276.1855 348.5839 15.50678774  5630
STARLINK-31802          
1 59636U 24082F   24153.53424092  .00002599  00000+0  50105-4 0  9998
2 59636  42.9968 219.0039 0001220 286.2846  73.7880 15.50581845  5644
STARLINK-31791          
1 59637U 24082G   24153.58334491  .00014392  00000+0  35110-3 0  9999
2 59637  42.9995 218.9160 0001933 272.5259 281.5807 15.40702090  5717
STARLINK-31727          
1 59638U 24082H   24153.53492591  .00002158  00000+0  42587-4 0  9995
2 59638  42.9971 219.0105 0001266 285.0042  75.0678 15.50582130  5692
STARLINK-31807          
1 59639U 24082J   24153.59832689 -.00019163  00000+0 -32223-3 0  9999
2 59639  43.0012 218.6254 0000943 309.3646  50.7131 15.50526913  5659
STARLINK-31806          
1 59640U 24082K   24153.21284689 -.00078705  00000+0 -13701-2 0  9997
2 59640  42.9973 220.8946 0004444 251.3819 108.6558 15.50135760  5591
STARLINK-31804          
1 59641U 24082L   24153.58334491  .00083950  00000+0  19972-2 0  9997
2 59641  42.9996 218.9757 0001577 269.0314 260.1680 15.40664888  5648
STARLINK-31660          
1 59642U 24082M   24153.58918312  .00019753  00000+0  13842-3 0  9999
2 59642  42.9984 216.7672 0001732 352.6852   7.3991 15.73829641  5874
STARLINK-31800          
1 59643U 24082N   24153.58334491 -.01691654  00000+0 -28605-1 0  9990
2 59643  43.0000 217.7311 0001371 270.7724  45.5650 15.53884413  5753
STARLINK-31789          
1 59644U 24082P   24153.58334491  .00050566  00000+0  12110-2 0  9994
2 59644  42.9994 218.8538 0002038 271.9687 307.0446 15.40668227  5904
STARLINK-31795          
1 59645U 24082Q   24152.58334491  .00347184  00000+0  13282-2 0  9990
2 59645  42.9963 221.9888 0003716 281.1795 123.5390 15.85746444  5514
STARLINK-31796          
1 59646U 24082R   24153.58334491 -.00469111  00000+0 -11814-1 0  9997
2 59646  42.9995 218.7627 0000919 300.0004 316.1766 15.40989866  5808
STARLINK-31801          
1 59647U 24082S   24153.59523153  .00004010  00000+0  74138-4 0  9996
2 59647  42.9968 218.6002 0000988 284.1766  75.8985 15.50576365  5706
STARLINK-31790          
1 59648U 24082T   24153.52000673  .00661041  20915-3  10977-2 0  9990
2 59648  42.9918 214.3908 0001623 341.5511  18.5309 16.02181063  5689
STARLINK-31803          
1 59649U 24082U   24153.58334491  .00041292  00000+0  99125-3 0  9997
2 59649  42.9997 218.9434 0000860 280.5813 261.0968 15.40674573  5758
STARLINK-31787          
1 59650U 24082V   24153.58334491 -.01438182  00000+0 -36545-1 0  9995
2 59650  42.9995 218.7333 0001163 277.6862 350.3868 15.41825378  5902
STARLINK-31277          
1 59651U 24082W   24153.58334491 -.02136633  00000+0 -48101-1 0  9994
2 59651  42.9995 218.7000 0001349 275.2923   7.0070 15.46138203  5845
STARLINK-31799          
1 59652U 24082X   24153.52978564  .00004873  00000+0  88820-4 0  9995
2 59652  43.0013 218.9670 0001895 275.0370  85.0274 15.50587050  5692
STARLINK-31764          
1 59653U 24082Y   24153.58334491  .00012803  00000+0  31333-3 0  9995
2 59653  42.9995 218.8823 0001191 285.3054 281.2592 15.40690764  5836
STARLINK-31589          
1 59654U 24084A   24153.32490225 -.00002708  00000+0 -40369-4 0  9993
2 59654  42.9980 121.2549 0002607 266.4365  93.6197 15.50561948  5200
STARLINK-31665          
1 59655U 24084B   24153.58334491 -.00000372  00000+0 -16498-5 0  9996
2 59655  42.9992 119.8886 0001518 326.5333 337.1383 15.40705062  5191
STARLINK-31912          
1 59656U 24084C   24153.25980571  .00000610  00000+0  16223-4 0  9995
2 59656  43.0004 121.6231 0001486 289.7455  70.3244 15.50569670  5176
STARLINK-31904          
1 59657U 24084D   24153.32387055  .00004787  00000+0  87352-4 0  9992
2 59657  42.9990 121.2429 0001429 267.7941  92.2755 15.50583487  5180
STARLINK-31858          
1 59658U 24084E   24153.58334491 -.02241964  00000+0 -53377-1 0  9998
2 59658  42.9995 119.7452 0001791 269.1802  92.4615 15.44109988  5199
